DIWATA-2B               
1 43678U 18084H   22231.28065904  .00001079  00000+0  11141-3 0  9990
2 43678  97.9796   5.3141 0011326  79.2285 281.0214 14.92262321207220
ES'HAIL 2               
1 43700U 18090A   22230.86131262  .00000137  00000+0  00000+0 0  9999
2 43700   0.0125 108.9879 0002049  83.3768 110.6545  1.00273027 13655
FOX-1CLIFF (AO-95)      
1 43770U 18099N   22231.17259526  .00002349  00000+0  21035-3 0  9996
2 43770  97.6158 295.8906 0015160  68.0692 292.2139 14.96683346202396
ITASAT 1                
1 43786U 18099AE  22231.16045992  .00001348  00000+0  12246-3 0  9994
2 43786  97.6195 296.8307 0016069  60.8713 299.4115 14.96799506202437
JY1SAT (JO-97)          
1 43803U 18099AX  22231.15636352  .00001999  00000+0  17668-3 0  9994
2 43803  97.6157 296.6012 0015986  60.0305 300.2502 14.97352819202458
UWE-4                   
1 43880U 18111E   22230.50973085  .00002056  00000+0  17676-3 0  9993
2 43880  97.6627 135.7342 0013324 107.3364 252.9317 14.98435359198990
NEXUS (FO-99)           
1 43937U 19003F   22231.03080838  .00015326  00000+0  49586-3 0  9990
2 43937  97.1272 261.9874 0017892 291.1657  68.7673 15.31984232199555
PSAT2 (NO-104)          
1 44354U 19036R   22230.36581954  .00062822 -55978-5  50305-3 0  9995
2 44354  28.5249 107.1387 0210410 312.0587  46.2286 15.45517851174241
JAISAT-1                
1 44419U 19038F   22230.67432505  .00008860  00000+0  43572-3 0  9999
2 44419  97.6403 201.3491 0016912 276.7117  83.2191 15.18140475172496
DUCHIFAT-3              
1 44854U 19089C   22230.98601803  .00002674  00000+0  20930-3 0  9991
2 44854  36.9653  89.5309 0008609 359.3404 138.6079 15.01409667147335
CAS-6 (TIANQIN 1)       
1 44881U 19093C   22231.10998296  .00000382  00000+0  55074-4 0  9998
2 44881  97.8911 309.4163 0014640 348.0613  12.0256 14.81786988144058
RS-44 & BREEZE-KM R/B   
1 44909U 19096E   22230.34596836  .00000008  00000+0 -16904-4 0  9996
2 44909  82.5229 189.1587 0217386 174.7230 185.6237 12.79714273123423
ORBITAL FACTORY 2 (OF-2)
1 45113U 19071C   22230.39165102  .00029504  00000+0  55666-3 0  9998
2 45113  51.6369 113.9855 0009100  47.7085 312.4673 15.48179149142966
HUSKYSAT-1 (HO-107)     
1 45119U 19071J   22230.37643364  .00031535  00000+0  62114-3 0  9996
2 45119  51.6369 114.6042 0009009  43.6395 316.5304 15.46902181142947
BY70-2                  
1 45857U 20042B   22231.16125140  .00004780  00000+0  63159-3 0  9992
2 45857  97.9535 307.4259 0008721 271.6945  88.3280 14.80443260114738
SALSAT                  
1 46495U 20068K   22230.47703800  .00001560  00000+0  11486-3 0  9996
2 46495  97.7308 171.8131 0018064  69.3851 290.9310 15.04722748103511
BY70-3                  
1 46839U 20079N   22231.20811275  .00020206  00000+0  43927-3 0  9991
2 46839  97.1940 302.5672 0006905 104.8210 331.1014 15.44337381 99924
